[{"OBJECT_NAME":"ONEWEB-0704","OBJECT_ID":"2024-188R","EPOCH":"2025-08-15T08:00:58.972896","MEAN_MOTION":13.10370654,"ECCENTRICITY":7.62e-5,"INCLINATION":87.8796,"RA_OF_ASC_NODE":97.2073,"ARG_OF_PERICENTER":68.2645,"MEAN_ANOMALY":291.8564,"EPHEMERIS_TYPE":0,"CLASSIFICATION_TYPE":"U","NORAD_CAT_ID":61609,"ELEMENT_SET_NO":999,"REV_AT_EPOCH":4323,"BSTAR":0.00090244,"MEAN_MOTION_DOT":3.28e-6,"MEAN_MOTION_DDOT":0},{"OBJECT_NAME":"ONEWEB-0705","OBJECT_ID":"2024-188S","EPOCH":"2025-08-15T08:08:09.098016","MEAN_MOTION":13.10370713,"ECCENTRICITY":0.0001226,"INCLINATION":87.8771,"RA_OF_ASC_NODE":97.2454,"ARG_OF_PERICENTER":125.6153,"MEAN_ANOMALY":234.5089,"EPHEMERIS_TYPE":0,"CLASSIFICATION_TYPE":"U","NORAD_CAT_ID":61610,"ELEMENT_SET_NO":999,"REV_AT_EPOCH":3540,"BSTAR":0.0003511,"MEAN_MOTION_DOT":1.35e-6,"MEAN_MOTION_DDOT":0},{"OBJECT_NAME":"ONEWEB-0706","OBJECT_ID":"2024-188T","EPOCH":"2025-08-15T15:06:27.822816","MEAN_MOTION":13.1037337,"ECCENTRICITY":0.0001101,"INCLINATION":87.8778,"RA_OF_ASC_NODE":97.215,"ARG_OF_PERICENTER":85.9877,"MEAN_ANOMALY":274.1376,"EPHEMERIS_TYPE":0,"CLASSIFICATION_TYPE":"U","NORAD_CAT_ID":61611,"ELEMENT_SET_NO":999,"REV_AT_EPOCH":4336,"BSTAR":0.0018424,"MEAN_MOTION_DOT":6.56e-6,"MEAN_MOTION_DDOT":0},{"OBJECT_NAME":"ONEWEB-0707","OBJECT_ID":"2024-188U","EPOCH":"2025-08-15T13:26:03.215616","MEAN_MOTION":13.10374114,"ECCENTRICITY":0.0001104,"INCLINATION":87.8774,"RA_OF_ASC_NODE":97.1943,"ARG_OF_PERICENTER":80.7047,"MEAN_ANOMALY":279.4205,"EPHEMERIS_TYPE":0,"CLASSIFICATION_TYPE":"U","NORAD_CAT_ID":61612,"ELEMENT_SET_NO":999,"REV_AT_EPOCH":4329,"BSTAR":0.0013633,"MEAN_MOTION_DOT":4.89e-6,"MEAN_MOTION_DDOT":0},{"OBJECT_NAME":"ONEWEB-0708","OBJECT_ID":"2024-188V","EPOCH":"2025-08-15T08:22:28.899840","MEAN_MOTION":13.10370724,"ECCENTRICITY":0.0001181,"INCLINATION":87.8805,"RA_OF_ASC_NODE":97.271,"ARG_OF_PERICENTER":103.8014,"MEAN_ANOMALY":256.3245,"EPHEMERIS_TYPE":0,"CLASSIFICATION_TYPE":"U","NORAD_CAT_ID":61613,"ELEMENT_SET_NO":999,"REV_AT_EPOCH":4324,"BSTAR":-0.0011163,"MEAN_MOTION_DOT":-3.77e-6,"MEAN_MOTION_DDOT":0}]
