ONEWEB-0704             
1 61609U 24188R   25227.33401589  .00000328  00000+0  90244-3 0  9990
2 61609  87.8796  97.2073 0000762  68.2645 291.8564 13.10370654 43230
ONEWEB-0705             
1 61610U 24188S   25227.33899419  .00000135  00000+0  35110-3 0  9992
2 61610  87.8771  97.2454 0001226 125.6153 234.5089 13.10370713 35408
ONEWEB-0706             
1 61611U 24188T   25227.62948869  .00000656  00000+0  18424-2 0  9995
2 61611  87.8778  97.2150 0001101  85.9877 274.1376 13.10373370 43367
ONEWEB-0707             
1 61612U 24188U   25227.55975944  .00000489  00000+0  13633-2 0  9993
2 61612  87.8774  97.1943 0001104  80.7047 279.4205 13.10374114 43296
ONEWEB-0708             
1 61613U 24188V   25227.34894560 -.00000377  00000+0 -11163-2 0  9999
2 61613  87.8805  97.2710 0001181 103.8014 256.3245 13.10370724 43247
